ATLAS CENTAUR R/B       
1 06155U 72065B   26073.89612064  .00001463  00000+0  20251-3 0  9997
2 06155  35.0009 275.2420 0033030  53.0800 307.2919 14.77703537842035
SL-8 R/B                
1 08459U 75112B   26074.27649763  .00000245  00000+0  89224-4 0  9994
2 08459  74.0635   8.6355 0014448  99.5745 260.7043 14.38207206632679
SL-3 R/B                
1 10114U 77057B   26074.22212025  .00015444  00000+0  32175-3 0  9996
2 10114  97.5776 246.3874 0006135 260.9268  99.1287 15.45667121669186
SEASAT 1                
1 10967U 78064A   26074.09905601  .00000271  00000+0  11428-3 0  9995
2 10967 108.0099 136.8506 0002418 283.6361  76.4515 14.46165096507298
SL-14 R/B               
1 11267U 79011B   26074.28141299  .00000636  00000+0  60256-4 0  9997
2 11267  82.5203  91.2632 0017085  43.1979 317.0577 14.91915354529611
SL-8 R/B                
1 11574U 79089B   26074.29425123  .00000319  00000+0  10452-3 0  9995
2 11574  74.0667  80.6675 0017082 252.7713 107.1574 14.42354761436912
SL-14 R/B               
1 11672U 80005B   26074.02966208  .00000601  00000+0  58177-4 0  9990
2 11672  82.5135 302.1707 0016612 141.2426 218.9988 14.90937060477281
SL-8 R/B                
1 12139U 81003B   26074.03361579  .00023559  00000+0  60096-3 0  9998
2 12139  82.9381 285.0826 0261608 160.0162 201.1555 15.11208074315488
SL-3 R/B                
1 12465U 81046B   26074.29996758  .00013514  00000+0  31260-3 0  9999
2 12465  81.2294 283.0065 0019107   2.8803 357.2546 15.42151031439291
SL-3 R/B                
1 12904U 81103B   26074.23110046  .00006712  00000+0  29705-3 0  9996
2 12904  81.1593 206.9317 0012423 266.6108  93.3702 15.21453169974072
SL-3 R/B                
1 13068U 82013B   26074.30262479  .00005374  00000+0  23210-3 0  9993
2 13068  81.1761 154.1929 0023005 158.5503 201.6699 15.22076189405207
SL-3 R/B                
1 13154U 82039B   26074.28899762  .00002986  00000+0  18005-3 0  9997
2 13154  81.1576 209.5063 0029469 306.1752  53.6748 15.10117464382481
