CCSDS_OMM_VERS = 2.0
CREATION_DATE  = 
ORIGINATOR     = 

OBJECT_NAME    = ATLAS CENTAUR R/B
OBJECT_ID      = 1972-065B
CENTER_NAME    = EARTH
REF_FRAME      = TEME
TIME_SYSTEM    = UTC
MEAN_ELEMENT_THEORY = SGP/SGP4

EPOCH          = 2026-03-14T21:30:24.823296
MEAN_MOTION    = 14.77703537
ECCENTRICITY   = .00330309
INCLINATION    = 35.0009
RA_OF_ASC_NODE = 275.2420
ARG_OF_PERICENTER = 53.0800
MEAN_ANOMALY   = 307.2919

EPHEMERIS_TYPE = 0
CLASSIFICATION_TYPE = U
NORAD_CAT_ID   = 6155
ELEMENT_SET_NO = 999
REV_AT_EPOCH   = 84203
BSTAR          = .20251143E-3
MEAN_MOTION_DOT = .1463E-4
MEAN_MOTION_DDOT = 0

CCSDS_OMM_VERS = 2.0
CREATION_DATE  = 
ORIGINATOR     = 

OBJECT_NAME    = SL-8 R/B
OBJECT_ID      = 1975-112B
CENTER_NAME    = EARTH
REF_FRAME      = TEME
TIME_SYSTEM    = UTC
MEAN_ELEMENT_THEORY = SGP/SGP4

EPOCH          = 2026-03-15T06:38:09.395232
MEAN_MOTION    = 14.38207206
ECCENTRICITY   = .00144481
INCLINATION    = 74.0635
RA_OF_ASC_NODE = 8.6355
ARG_OF_PERICENTER = 99.5745
MEAN_ANOMALY   = 260.7043

EPHEMERIS_TYPE = 0
CLASSIFICATION_TYPE = U
NORAD_CAT_ID   = 8459
ELEMENT_SET_NO = 999
REV_AT_EPOCH   = 63267
BSTAR          = .89224454E-4
MEAN_MOTION_DOT = .245E-5
MEAN_MOTION_DDOT = 0

CCSDS_OMM_VERS = 2.0
CREATION_DATE  = 
ORIGINATOR     = 

OBJECT_NAME    = SL-3 R/B
OBJECT_ID      = 1977-057B
CENTER_NAME    = EARTH
REF_FRAME      = TEME
TIME_SYSTEM    = UTC
MEAN_ELEMENT_THEORY = SGP/SGP4

EPOCH          = 2026-03-15T05:19:51.189600
MEAN_MOTION    = 15.45667121
ECCENTRICITY   = .0006135
INCLINATION    = 97.5776
RA_OF_ASC_NODE = 246.3874
ARG_OF_PERICENTER = 260.9268
MEAN_ANOMALY   = 99.1287

EPHEMERIS_TYPE = 0
CLASSIFICATION_TYPE = U
NORAD_CAT_ID   = 10114
ELEMENT_SET_NO = 999
REV_AT_EPOCH   = 66918
BSTAR          = .32175272E-3
MEAN_MOTION_DOT = .15444E-3
MEAN_MOTION_DDOT = 0

CCSDS_OMM_VERS = 2.0
CREATION_DATE  = 
ORIGINATOR     = 

OBJECT_NAME    = SEASAT 1
OBJECT_ID      = 1978-064A
CENTER_NAME    = EARTH
REF_FRAME      = TEME
TIME_SYSTEM    = UTC
MEAN_ELEMENT_THEORY = SGP/SGP4

EPOCH          = 2026-03-15T02:22:38.439264
MEAN_MOTION    = 14.46165096
ECCENTRICITY   = .00024185
INCLINATION    = 108.0099
RA_OF_ASC_NODE = 136.8506
ARG_OF_PERICENTER = 283.6361
MEAN_ANOMALY   = 76.4515

EPHEMERIS_TYPE = 0
CLASSIFICATION_TYPE = U
NORAD_CAT_ID   = 10967
ELEMENT_SET_NO = 999
REV_AT_EPOCH   = 50729
BSTAR          = .11428335E-3
MEAN_MOTION_DOT = .271E-5
MEAN_MOTION_DDOT = 0

CCSDS_OMM_VERS = 2.0
CREATION_DATE  = 
ORIGINATOR     = 

OBJECT_NAME    = SL-14 R/B
OBJECT_ID      = 1979-011B
CENTER_NAME    = EARTH
REF_FRAME      = TEME
TIME_SYSTEM    = UTC
MEAN_ELEMENT_THEORY = SGP/SGP4

EPOCH          = 2026-03-15T06:45:14.082336
MEAN_MOTION    = 14.91915354
ECCENTRICITY   = .00170858
INCLINATION    = 82.5203
RA_OF_ASC_NODE = 91.2632
ARG_OF_PERICENTER = 43.1979
MEAN_ANOMALY   = 317.0577

EPHEMERIS_TYPE = 0
CLASSIFICATION_TYPE = U
NORAD_CAT_ID   = 11267
ELEMENT_SET_NO = 999
REV_AT_EPOCH   = 52961
BSTAR          = .60256364E-4
MEAN_MOTION_DOT = .636E-5
MEAN_MOTION_DDOT = 0

CCSDS_OMM_VERS = 2.0
CREATION_DATE  = 
ORIGINATOR     = 

OBJECT_NAME    = SL-8 R/B
OBJECT_ID      = 1979-089B
CENTER_NAME    = EARTH
REF_FRAME      = TEME
TIME_SYSTEM    = UTC
MEAN_ELEMENT_THEORY = SGP/SGP4

EPOCH          = 2026-03-15T07:03:43.306272
MEAN_MOTION    = 14.42354761
ECCENTRICITY   = .00170826
INCLINATION    = 74.0667
RA_OF_ASC_NODE = 80.6675
ARG_OF_PERICENTER = 252.7713
MEAN_ANOMALY   = 107.1574

EPHEMERIS_TYPE = 0
CLASSIFICATION_TYPE = U
NORAD_CAT_ID   = 11574
ELEMENT_SET_NO = 999
REV_AT_EPOCH   = 43691
BSTAR          = .10452202E-3
MEAN_MOTION_DOT = .319E-5
MEAN_MOTION_DDOT = 0

CCSDS_OMM_VERS = 2.0
CREATION_DATE  = 
ORIGINATOR     = 

OBJECT_NAME    = SL-14 R/B
OBJECT_ID      = 1980-005B
CENTER_NAME    = EARTH
REF_FRAME      = TEME
TIME_SYSTEM    = UTC
MEAN_ELEMENT_THEORY = SGP/SGP4

EPOCH          = 2026-03-15T00:42:42.803712
MEAN_MOTION    = 14.90937060
ECCENTRICITY   = .00166128
INCLINATION    = 82.5135
RA_OF_ASC_NODE = 302.1707
ARG_OF_PERICENTER = 141.2426
MEAN_ANOMALY   = 218.9988

EPHEMERIS_TYPE = 0
CLASSIFICATION_TYPE = U
NORAD_CAT_ID   = 11672
ELEMENT_SET_NO = 999
REV_AT_EPOCH   = 47728
BSTAR          = .58176891E-4
MEAN_MOTION_DOT = .601E-5
MEAN_MOTION_DDOT = 0

CCSDS_OMM_VERS = 2.0
CREATION_DATE  = 
ORIGINATOR     = 

OBJECT_NAME    = SL-8 R/B
OBJECT_ID      = 1981-003B
CENTER_NAME    = EARTH
REF_FRAME      = TEME
TIME_SYSTEM    = UTC
MEAN_ELEMENT_THEORY = SGP/SGP4

EPOCH          = 2026-03-15T00:48:24.404256
MEAN_MOTION    = 15.11208074
ECCENTRICITY   = .02616082
INCLINATION    = 82.9381
RA_OF_ASC_NODE = 285.0826
ARG_OF_PERICENTER = 160.0162
MEAN_ANOMALY   = 201.1555

EPHEMERIS_TYPE = 0
CLASSIFICATION_TYPE = U
NORAD_CAT_ID   = 12139
ELEMENT_SET_NO = 999
REV_AT_EPOCH   = 31548
BSTAR          = .60095526E-3
MEAN_MOTION_DOT = .23559E-3
MEAN_MOTION_DDOT = 0

CCSDS_OMM_VERS = 2.0
CREATION_DATE  = 
ORIGINATOR     = 

OBJECT_NAME    = SL-3 R/B
OBJECT_ID      = 1981-046B
CENTER_NAME    = EARTH
REF_FRAME      = TEME
TIME_SYSTEM    = UTC
MEAN_ELEMENT_THEORY = SGP/SGP4

EPOCH          = 2026-03-15T07:11:57.198912
MEAN_MOTION    = 15.42151031
ECCENTRICITY   = .00191076
INCLINATION    = 81.2294
RA_OF_ASC_NODE = 283.0065
ARG_OF_PERICENTER = 2.8803
MEAN_ANOMALY   = 357.2546

EPHEMERIS_TYPE = 0
CLASSIFICATION_TYPE = U
NORAD_CAT_ID   = 12465
ELEMENT_SET_NO = 999
REV_AT_EPOCH   = 43929
BSTAR          = .31260264E-3
MEAN_MOTION_DOT = .13514E-3
MEAN_MOTION_DDOT = 0

CCSDS_OMM_VERS = 2.0
CREATION_DATE  = 
ORIGINATOR     = 

OBJECT_NAME    = SL-3 R/B
OBJECT_ID      = 1981-103B
CENTER_NAME    = EARTH
REF_FRAME      = TEME
TIME_SYSTEM    = UTC
MEAN_ELEMENT_THEORY = SGP/SGP4

EPOCH          = 2026-03-15T05:32:47.079744
MEAN_MOTION    = 15.21453169
ECCENTRICITY   = .00124233
INCLINATION    = 81.1593
RA_OF_ASC_NODE = 206.9317
ARG_OF_PERICENTER = 266.6108
MEAN_ANOMALY   = 93.3702

EPHEMERIS_TYPE = 0
CLASSIFICATION_TYPE = U
NORAD_CAT_ID   = 12904
ELEMENT_SET_NO = 999
REV_AT_EPOCH   = 97407
BSTAR          = .29705184E-3
MEAN_MOTION_DOT = .6712E-4
MEAN_MOTION_DDOT = 0

CCSDS_OMM_VERS = 2.0
CREATION_DATE  = 
ORIGINATOR     = 

OBJECT_NAME    = SL-3 R/B
OBJECT_ID      = 1982-013B
CENTER_NAME    = EARTH
REF_FRAME      = TEME
TIME_SYSTEM    = UTC
MEAN_ELEMENT_THEORY = SGP/SGP4

EPOCH          = 2026-03-15T07:15:46.781856
MEAN_MOTION    = 15.22076189
ECCENTRICITY   = .0023005
INCLINATION    = 81.1761
RA_OF_ASC_NODE = 154.1929
ARG_OF_PERICENTER = 158.5503
MEAN_ANOMALY   = 201.6699

EPHEMERIS_TYPE = 0
CLASSIFICATION_TYPE = U
NORAD_CAT_ID   = 13068
ELEMENT_SET_NO = 999
REV_AT_EPOCH   = 40520
BSTAR          = .23210198E-3
MEAN_MOTION_DOT = .5374E-4
MEAN_MOTION_DDOT = 0

CCSDS_OMM_VERS = 2.0
CREATION_DATE  = 
ORIGINATOR     = 

OBJECT_NAME    = SL-3 R/B
OBJECT_ID      = 1982-039B
CENTER_NAME    = EARTH
REF_FRAME      = TEME
TIME_SYSTEM    = UTC
MEAN_ELEMENT_THEORY = SGP/SGP4

EPOCH          = 2026-03-15T06:56:09.394368
MEAN_MOTION    = 15.10117464
ECCENTRICITY   = .00294693
INCLINATION    = 81.1576
RA_OF_ASC_NODE = 209.5063
ARG_OF_PERICENTER = 306.1752
MEAN_ANOMALY   = 53.6748

EPHEMERIS_TYPE = 0
CLASSIFICATION_TYPE = U
NORAD_CAT_ID   = 13154
ELEMENT_SET_NO = 999
REV_AT_EPOCH   = 38248
BSTAR          = .18004942E-3
MEAN_MOTION_DOT = .2986E-4
MEAN_MOTION_DDOT = 0

